COSMOS 1408 DEB         
1 50032U 82092RU  26115.84952824  .00005788  00000+0  11231-3 0  9996
2 50032  82.5603 280.8758 0016939  86.6227 273.6960 15.47239565246768
COSMOS 1408 DEB         
1 50058U 82092SW  26115.94771050  .00052748  00000+0  34211-3 0  9996
2 50058  82.6065 287.6847 0010553 312.9355  47.1024 15.75722250249099
COSMOS 1408 DEB         
1 50404U 82092ADS 26115.93464026  .00316653  00000+0  43452-2 0  9996
2 50404  82.1879  74.1050 0092535  90.2033 270.9821 15.51436654232453
COSMOS 1408 DEB         
1 50621U 82092ALR 26115.90976562  .00038316  00000+0  37507-3 0  9999
2 50621  82.5648 293.5570 0022449  15.8446 344.3511 15.65609914243432
