[{"OBJECT_NAME":"COSMOS 1408 DEB","OBJECT_ID":"1982-092RU","EPOCH":"2026-04-25T20:23:19.239936","MEAN_MOTION":15.47239565,"ECCENTRICITY":0.00169399,"INCLINATION":82.5603,"RA_OF_ASC_NODE":280.8758,"ARG_OF_PERICENTER":86.6227,"MEAN_ANOMALY":273.696,"EPHEMERIS_TYPE":0,"CLASSIFICATION_TYPE":"U","NORAD_CAT_ID":50032,"ELEMENT_SET_NO":999,"REV_AT_EPOCH":24676,"BSTAR":0.00011230683,"MEAN_MOTION_DOT":5.788e-5,"MEAN_MOTION_DDOT":0},{"OBJECT_NAME":"COSMOS 1408 DEB","OBJECT_ID":"1982-092SW","EPOCH":"2026-04-25T22:44:42.187200","MEAN_MOTION":15.7572225,"ECCENTRICITY":0.00105533,"INCLINATION":82.6065,"RA_OF_ASC_NODE":287.6847,"ARG_OF_PERICENTER":312.9355,"MEAN_ANOMALY":47.1024,"EPHEMERIS_TYPE":0,"CLASSIFICATION_TYPE":"U","NORAD_CAT_ID":50058,"ELEMENT_SET_NO":999,"REV_AT_EPOCH":24909,"BSTAR":0.00034210804,"MEAN_MOTION_DOT":0.00052748,"MEAN_MOTION_DDOT":0},{"OBJECT_NAME":"COSMOS 1408 DEB","OBJECT_ID":"1982-092ADS","EPOCH":"2026-04-25T22:25:52.918464","MEAN_MOTION":15.51436654,"ECCENTRICITY":0.00925352,"INCLINATION":82.1879,"RA_OF_ASC_NODE":74.105,"ARG_OF_PERICENTER":90.2033,"MEAN_ANOMALY":270.9821,"EPHEMERIS_TYPE":0,"CLASSIFICATION_TYPE":"U","NORAD_CAT_ID":50404,"ELEMENT_SET_NO":999,"REV_AT_EPOCH":23245,"BSTAR":0.0043451555,"MEAN_MOTION_DOT":0.00316653,"MEAN_MOTION_DDOT":0},{"OBJECT_NAME":"COSMOS 1408 DEB","OBJECT_ID":"1982-092ALR","EPOCH":"2026-04-25T21:50:03.749568","MEAN_MOTION":15.65609914,"ECCENTRICITY":0.0022449,"INCLINATION":82.5648,"RA_OF_ASC_NODE":293.557,"ARG_OF_PERICENTER":15.8446,"MEAN_ANOMALY":344.3511,"EPHEMERIS_TYPE":0,"CLASSIFICATION_TYPE":"U","NORAD_CAT_ID":50621,"ELEMENT_SET_NO":999,"REV_AT_EPOCH":24343,"BSTAR":0.0003750659,"MEAN_MOTION_DOT":0.00038316,"MEAN_MOTION_DDOT":0}]
